[{"OBJECT_NAME":"STARLINK-5856","OBJECT_ID":"2023-037A","EPOCH":"2026-03-09T21:23:38.555808","MEAN_MOTION":14.98331752,"ECCENTRICITY":0.00025085,"INCLINATION":69.9994,"RA_OF_ASC_NODE":304.0996,"ARG_OF_PERICENTER":272.5008,"MEAN_ANOMALY":87.5864,"EPHEMERIS_TYPE":0,"CLASSIFICATION_TYPE":"U","NORAD_CAT_ID":55914,"ELEMENT_SET_NO":999,"REV_AT_EPOCH":16420,"BSTAR":-2.2290122e-5,"MEAN_MOTION_DOT":-3.59e-6,"MEAN_MOTION_DDOT":0},{"OBJECT_NAME":"NOAA 16 DEB","OBJECT_ID":"2000-055NX","EPOCH":"2026-03-08T23:11:13.556832","MEAN_MOTION":15.01016664,"ECCENTRICITY":0.00157984,"INCLINATION":98.8636,"RA_OF_ASC_NODE":259.6913,"ARG_OF_PERICENTER":295.8562,"MEAN_ANOMALY":64.1029,"EPHEMERIS_TYPE":0,"CLASSIFICATION_TYPE":"U","NORAD_CAT_ID":41658,"ELEMENT_SET_NO":999,"REV_AT_EPOCH":9741,"BSTAR":0.010110988,"MEAN_MOTION_DOT":0.00131742,"MEAN_MOTION_DDOT":0}]
